{"type": "FeatureCollection", "features": [ {"type": "Feature", "properties": {"norad_id": 34823, "name": "COSMOS 2251 DEB", "group": "cosmos-2251-debris", "lat": -38.393993138415325, "lon": -73.92880826268383, "alt_km": 635.5402416272354, "timestamp": "2025-12-17T15:50:10.177133+00:00", "meta": {"OBJECT_NAME": "COSMOS 2251 DEB", "OBJECT_ID": "1993-036ABN", "EPOCH": "2025-12-17T08:13:57.781632", "MEAN_MOTION": 14.54961237, "ECCENTRICITY": 0.01543896, "INCLINATION": 74.0424, "RA_OF_ASC_NODE": 93.5656, "ARG_OF_PERICENTER": 177.2097, "MEAN_ANOMALY": 182.9967, "EPHEMERIS_TYPE": 0, "CLASSIFICATION_TYPE": "U", "NORAD_CAT_ID": 34823, "ELEMENT_SET_NO": 999, "REV_AT_EPOCH": 88448, "BSTAR": 0.00051944316, "MEAN_MOTION_DOT": 2.591e-05, "MEAN_MOTION_DDOT": 0}, "tle": {"line1": "1 34823U 93036ABN 25351.34302988  .00002591  00000+0  51944-3 0  9996", "line2": "2 34823  74.0424  93.5656 0154389 177.2097 182.9967 14.54961237884486"}}, "geometry": {"type": "Point", "coordinates": [-73.92880826268383, -38.393993138415325]}}, {"type": "Feature", "properties": {"norad_id": 34845, "name": "COSMOS 2251 DEB", "group": "cosmos-2251-debris", "lat": 25.44010026029922, "lon": 146.9984099899645, "alt_km": 737.257762042329, "timestamp": "2025-12-17T15:50:10.177143+00:00", "meta": {"OBJECT_NAME": "COSMOS 2251 DEB", "OBJECT_ID": "1993-036ABP", "EPOCH": "2025-12-16T16:27:57.312000", "MEAN_MOTION": 14.45867207, "ECCENTRICITY": 0.0022475, "INCLINATION": 74.024, "RA_OF_ASC_NODE": 140.983, "ARG_OF_PERICENTER": 301.2672, "MEAN_ANOMALY": 58.6284, "EPHEMERIS_TYPE": 0, "CLASSIFICATION_TYPE": "U", "NORAD_CAT_ID": 34845, "ELEMENT_SET_NO": 999, "REV_AT_EPOCH": 87523, "BSTAR": 0.00027004577, "MEAN_MOTION_DOT": 9.35e-06, "MEAN_MOTION_DDOT": 0}, "tle": {"line1": "1 34845U 93036ABP 25350.68608000  .00000935  00000+0  27005-3 0  9991", "line2": "2 34845  74.0240 140.9830 0022475 301.2672  58.6284 14.45867207875231"}}, "geometry": {"type": "Point", "coordinates": [146.9984099899645, 25.44010026029922]}}, {"type": "Feature", "properties": {"norad_id": 34846, "name": "COSMOS 2251 DEB", "group": "cosmos-2251-debris", "lat": -9.779836096629264, "lon": -110.25466513485699, "alt_km": 722.6084163600053, "timestamp": "2025-12-17T15:50:10.177153+00:00", "meta": {"OBJECT_NAME": "COSMOS 2251 DEB", "OBJECT_ID": "1993-036ABQ", "EPOCH": "2025-12-17T04:16:11.570016", "MEAN_MOTION": 14.47241501, "ECCENTRICITY": 0.00261745, "INCLINATION": 74.031, "RA_OF_ASC_NODE": 253.4753, "ARG_OF_PERICENTER": 319.3047, "MEAN_ANOMALY": 40.6155, "EPHEMERIS_TYPE": 0, "CLASSIFICATION_TYPE": "U", "NORAD_CAT_ID": 34846, "ELEMENT_SET_NO": 999, "REV_AT_EPOCH": 87468, "BSTAR": 0.00058608284, "MEAN_MOTION_DOT": 2.125e-05, "MEAN_MOTION_DDOT": 0}, "tle": {"line1": "1 34846U 93036ABQ 25351.17791169  .00002125  00000+0  58608-3 0  9992", "line2": "2 34846  74.0310 253.4753 0026174 319.3047  40.6155 14.47241501874681"}}, "geometry": {"type": "Point", "coordinates": [-110.25466513485699, -9.779836096629264]}}, {"type": "Feature", "properties": {"norad_id": 34852, "name": "COSMOS 2251 DEB", "group": "cosmos-2251-debris", "lat": -51.800055765519, "lon": 95.26039706509665, "alt_km": 781.0185854063502, "timestamp": "2025-12-17T15:50:10.177163+00:00", "meta": {"OBJECT_NAME": "COSMOS 2251 DEB", "OBJECT_ID": "1993-036ABW", "EPOCH": "2025-12-16T01:59:18.966624", "MEAN_MOTION": 14.3700768, "ECCENTRICITY": 0.00163324, "INCLINATION": 74.0328, "RA_OF_ASC_NODE": 256.8235, "ARG_OF_PERICENTER": 359.1989, "MEAN_ANOMALY": 0.9135, "EPHEMERIS_TYPE": 0, "CLASSIFICATION_TYPE": "U", "NORAD_CAT_ID": 34852, "ELEMENT_SET_NO": 999, "REV_AT_EPOCH": 87582, "BSTAR": 0.00011051411, "MEAN_MOTION_DOT": 3.02e-06, "MEAN_MOTION_DDOT": 0}, "tle": {"line1": "1 34852U 93036ABW 25350.08285841  .00000302  00000+0  11051-3 0  9999", "line2": "2 34852  74.0328 256.8235 0016332 359.1989   0.9135 14.37007680875822"}}, "geometry": {"type": "Point", "coordinates": [95.26039706509665, -51.800055765519]}}, {"type": "Feature", "properties": {"norad_id": 34854, "name": "COSMOS 2251 DEB", "group": "cosmos-2251-debris", "lat": 56.667686165022616, "lon": -56.87848722110987, "alt_km": 669.4799727745731, "timestamp": "2025-12-17T15:50:10.177174+00:00", "meta": {"OBJECT_NAME": "COSMOS 2251 DEB", "OBJECT_ID": "1993-036ABY", "EPOCH": "2025-12-17T03:54:33.341760", "MEAN_MOTION": 14.76668527, "ECCENTRICITY": 0.00660904, "INCLINATION": 74.0279, "RA_OF_ASC_NODE": 149.9114, "ARG_OF_PERICENTER": 260.7011, "MEAN_ANOMALY": 98.6686, "EPHEMERIS_TYPE": 0, "CLASSIFICATION_TYPE": "U", "NORAD_CAT_ID": 34854, "ELEMENT_SET_NO": 999, "REV_AT_EPOCH": 71947, "BSTAR": 0.00058059968, "MEAN_MOTION_DOT": 4.175e-05, "MEAN_MOTION_DDOT": 0}, "tle": {"line1": "1 34854U 93036ABY 25351.16288590  .00004175  00000+0  58060-3 0  9998", "line2": "2 34854  74.0279 149.9114 0066090 260.7011  98.6686 14.76668527719475"}}, "geometry": {"type": "Point", "coordinates": [-56.87848722110987, 56.667686165022616]}}, {"type": "Feature", "properties": {"norad_id": 34856, "name": "COSMOS 2251 DEB", "group": "cosmos-2251-debris", "lat": -3.0153496569529628, "lon": 73.86463918954028, "alt_km": 569.0284651343281, "timestamp": "2025-12-17T15:50:10.177184+00:00", "meta": {"OBJECT_NAME": "COSMOS 2251 DEB", "OBJECT_ID": "1993-036ACA", "EPOCH": "2025-12-15T08:23:09.320352", "MEAN_MOTION": 15.0621822, "ECCENTRICITY": 0.00326007, "INCLINATION": 73.9961, "RA_OF_ASC_NODE": 79.4818, "ARG_OF_PERICENTER": 217.4103, "MEAN_ANOMALY": 216.3401, "EPHEMERIS_TYPE": 0, "CLASSIFICATION_TYPE": "U", "NORAD_CAT_ID": 34856, "ELEMENT_SET_NO": 999, "REV_AT_EPOCH": 89151, "BSTAR": 0.0012135652, "MEAN_MOTION_DOT": 0.00018014, "MEAN_MOTION_DDOT": 0}, "tle": {"line1": "1 34856U 93036ACA 25349.34941343  .00018014  00000+0  12136-2 0  9999", "line2": "2 34856  73.9961  79.4818 0032600 217.4103 216.3401 15.06218220891517"}}, "geometry": {"type": "Point", "coordinates": [73.86463918954028, -3.0153496569529628]}}, {"type": "Feature", "properties": {"norad_id": 34857, "name": "COSMOS 2251 DEB", "group": "cosmos-2251-debris", "lat": -64.85960942961135, "lon": -44.9105265116146, "alt_km": 662.8383934200529, "timestamp": "2025-12-17T15:50:10.177195+00:00", "meta": {"OBJECT_NAME": "COSMOS 2251 DEB", "OBJECT_ID": "1993-036ACB", "EPOCH": "2025-12-17T08:22:23.074752", "MEAN_MOTION": 14.58939569, "ECCENTRICITY": 0.00656916, "INCLINATION": 74.0161, "RA_OF_ASC_NODE": 98.0372, "ARG_OF_PERICENTER": 221.6998, "MEAN_ANOMALY": 195.6739, "EPHEMERIS_TYPE": 0, "CLASSIFICATION_TYPE": "U", "NORAD_CAT_ID": 34857, "ELEMENT_SET_NO": 999, "REV_AT_EPOCH": 87968, "BSTAR": 0.00084912938, "MEAN_MOTION_DOT": 4.074e-05, "MEAN_MOTION_DDOT": 0}, "tle": {"line1": "1 34857U 93036ACB 25351.34887818  .00004074  00000+0  84913-3 0  9993", "line2": "2 34857  74.0161  98.0372 0065691 221.6998 195.6739 14.58939569879688"}}, "geometry": {"type": "Point", "coordinates": [-44.9105265116146, -64.85960942961135]}}, {"type": "Feature", "properties": {"norad_id": 34859, "name": "COSMOS 2251 DEB", "group": "cosmos-2251-debris", "lat": 58.306179406498025, "lon": 121.78309482861981, "alt_km": 514.0186979645523, "timestamp": "2025-12-17T15:50:10.177206+00:00", "meta": {"OBJECT_NAME": "COSMOS 2251 DEB", "OBJECT_ID": "1993-036ACD", "EPOCH": "2025-12-16T09:46:42.737376", "MEAN_MOTION": 15.15357258, "ECCENTRICITY": 0.00019857, "INCLINATION": 74.0281, "RA_OF_ASC_NODE": 332.0261, "ARG_OF_PERICENTER": 6.7408, "MEAN_ANOMALY": 121.3133, "EPHEMERIS_TYPE": 0, "CLASSIFICATION_TYPE": "U", "NORAD_CAT_ID": 34859, "ELEMENT_SET_NO": 999, "REV_AT_EPOCH": 88414, "BSTAR": 0.0033529222, "MEAN_MOTION_DOT": 0.00063788, "MEAN_MOTION_DDOT": 0}, "tle": {"line1": "1 34859U 93036ACD 25350.40743909  .00063788  00000+0  33529-2 0  9996", "line2": "2 34859  74.0281 332.0261 0001985   6.7408 121.3133 15.15357258884149"}}, "geometry": {"type": "Point", "coordinates": [121.78309482861981, 58.306179406498025]}}, {"type": "Feature", "properties": {"norad_id": 34861, "name": "COSMOS 2251 DEB", "group": "cosmos-2251-debris", "lat": 14.926142165348274, "lon": -143.58150111998077, "alt_km": 562.0225794902599, "timestamp": "2025-12-17T15:50:10.177216+00:00", "meta": {"OBJECT_NAME": "COSMOS 2251 DEB", "OBJECT_ID": "1993-036ACF", "EPOCH": "2025-12-16T04:05:31.084224", "MEAN_MOTION": 15.0279155, "ECCENTRICITY": 0.00073615, "INCLINATION": 74.0193, "RA_OF_ASC_NODE": 43.8416, "ARG_OF_PERICENTER": 36.4182, "MEAN_ANOMALY": 353.7173, "EPHEMERIS_TYPE": 0, "CLASSIFICATION_TYPE": "U", "NORAD_CAT_ID": 34861, "ELEMENT_SET_NO": 999, "REV_AT_EPOCH": 88144, "BSTAR": 0.0016459409, "MEAN_MOTION_DOT": 0.00022073, "MEAN_MOTION_DDOT": 0}, "tle": {"line1": "1 34861U 93036ACF 25350.17049866  .00022073  00000+0  16459-2 0  9999", "line2": "2 34861  74.0193  43.8416 0007361  36.4182 353.7173 15.02791550881444"}}, "geometry": {"type": "Point", "coordinates": [-143.58150111998077, 14.926142165348274]}}, {"type": "Feature", "properties": {"norad_id": 34874, "name": "COSMOS 2251 DEB", "group": "cosmos-2251-debris", "lat": 19.47912056399442, "lon": 70.54007129626014, "alt_km": 756.7807027813396, "timestamp": "2025-12-17T15:50:10.177226+00:00", "meta": {"OBJECT_NAME": "COSMOS 2251 DEB", "OBJECT_ID": "1993-036ACM", "EPOCH": "2025-12-15T15:57:33.247296", "MEAN_MOTION": 14.36325201, "ECCENTRICITY": 0.00508248, "INCLINATION": 74.0399, "RA_OF_ASC_NODE": 68.3924, "ARG_OF_PERICENTER": 92.7738, "MEAN_ANOMALY": 57.2671, "EPHEMERIS_TYPE": 0, "CLASSIFICATION_TYPE": "U", "NORAD_CAT_ID": 34874, "ELEMENT_SET_NO": 999, "REV_AT_EPOCH": 87086, "BSTAR": 0.00056877807, "MEAN_MOTION_DOT": 1.663e-05, "MEAN_MOTION_DDOT": 0}, "tle": {"line1": "1 34874U 93036ACM 25349.66496814  .00001663  00000+0  56878-3 0  9996", "line2": "2 34874  74.0399  68.3924 0050824  92.7738  57.2671 14.36325201870861"}}, "geometry": {"type": "Point", "coordinates": [70.54007129626014, 19.47912056399442]}}]}